{
  "type": "FeatureCollection",
  "features": [
    {
      "type": "Feature",
      "properties": {
        "norad_id": 36229,
        "name": "FENGYUN 1C DEB",
        "group": "fengyun-1c-debris",
        "lat": -46.65563300253844,
        "lon": 10.936812343010558,
        "alt_km": 883.8067848402698,
        "timestamp": "2025-12-09T14:52:26.450024+00:00",
        "meta_object_name": "FENGYUN 1C DEB",
        "meta_object_id": "1999-025DVE",
        "meta_epoch": "2025-12-07T20:51:00.244512",
        "meta_mean_motion": 14.07154025,
        "meta_eccentricity": 0.0102508,
        "meta_inclination": 100.9237,
        "meta_ra_of_asc_node": 200.6322,
        "meta_arg_of_pericenter": 135.4586,
        "meta_mean_anomaly": 225.4872,
        "meta_ephemeris_type": 0,
        "meta_classification_type": "U",
        "meta_norad_cat_id": 36229,
        "meta_element_set_no": 999,
        "meta_rev_at_epoch": 63187,
        "meta_bstar": 0.0023471767,
        "meta_mean_motion_dot": 4.065e-05,
        "meta_mean_motion_ddot": 0,
        "tle_line1": "1 36229U 99025DVE 25341.86875283  .00004065  00000+0  23472-2 0  9993",
        "tle_line2": "2 36229 100.9237 200.6322 0102508 135.4586 225.4872 14.07154025631873"
      },
      "geometry": {
        "type": "Point",
        "coordinates": [
          10.936812343010558,
          -46.65563300253844
        ]
      }
    },
    {
      "type": "Feature",
      "properties": {
        "norad_id": 36230,
        "name": "FENGYUN 1C DEB",
        "group": "fengyun-1c-debris",
        "lat": 79.62784026176297,
        "lon": -7.781796853359754,
        "alt_km": 900.8121645257152,
        "timestamp": "2025-12-09T14:52:26.450036+00:00",
        "meta_object_name": "FENGYUN 1C DEB",
        "meta_object_id": "1999-025DVF",
        "meta_epoch": "2025-12-07T11:48:59.173920",
        "meta_mean_motion": 13.75238699,
        "meta_eccentricity": 0.02177862,
        "meta_inclination": 99.5238,
        "meta_ra_of_asc_node": 56.6096,
        "meta_arg_of_pericenter": 155.6506,
        "meta_mean_anomaly": 205.512,
        "meta_ephemeris_type": 0,
        "meta_classification_type": "U",
        "meta_norad_cat_id": 36230,
        "meta_element_set_no": 999,
        "meta_rev_at_epoch": 61814,
        "meta_bstar": 0.0031022093,
        "meta_mean_motion_dot": 3.491e-05,
        "meta_mean_motion_ddot": 0,
        "tle_line1": "1 36230U 99025DVF 25341.49235155  .00003491  00000+0  31022-2 0  9994",
        "tle_line2": "2 36230  99.5238  56.6096 0217786 155.6506 205.5120 13.75238699618141"
      },
      "geometry": {
        "type": "Point",
        "coordinates": [
          -7.781796853359754,
          79.62784026176297
        ]
      }
    },
    {
      "type": "Feature",
      "properties": {
        "norad_id": 36231,
        "name": "FENGYUN 1C DEB",
        "group": "fengyun-1c-debris",
        "lat": -64.0681650304074,
        "lon": -23.025009630710787,
        "alt_km": 830.0164470847176,
        "timestamp": "2025-12-09T14:52:26.450047+00:00",
        "meta_object_name": "FENGYUN 1C DEB",
        "meta_object_id": "1999-025DVG",
        "meta_epoch": "2025-12-05T15:56:36.863520",
        "meta_mean_motion": 14.12000961,
        "meta_eccentricity": 0.0060915,
        "meta_inclination": 98.6876,
        "meta_ra_of_asc_node": 314.8164,
        "meta_arg_of_pericenter": 353.731,
        "meta_mean_anomaly": 6.3094,
        "meta_ephemeris_type": 0,
        "meta_classification_type": "U",
        "meta_norad_cat_id": 36231,
        "meta_element_set_no": 999,
        "meta_rev_at_epoch": 85443,
        "meta_bstar": 0.00026309485,
        "meta_mean_motion_dot": 4.47e-06,
        "meta_mean_motion_ddot": 0,
        "tle_line1": "1 36231U 99025DVG 25339.66431555  .00000447  00000+0  26309-3 0  9994",
        "tle_line2": "2 36231  98.6876 314.8164 0060915 353.7310   6.3094 14.12000961854431"
      },
      "geometry": {
        "type": "Point",
        "coordinates": [
          -23.025009630710787,
          -64.0681650304074
        ]
      }
    },
    {
      "type": "Feature",
      "properties": {
        "norad_id": 36232,
        "name": "FENGYUN 1C DEB",
        "group": "fengyun-1c-debris",
        "lat": 0.9461671164208539,
        "lon": 147.89781903537732,
        "alt_km": 921.2568292059441,
        "timestamp": "2025-12-09T14:52:26.450058+00:00",
        "meta_object_name": "FENGYUN 1C DEB",
        "meta_object_id": "1999-025DVH",
        "meta_epoch": "2025-12-06T16:20:06.214272",
        "meta_mean_motion": 14.12489244,
        "meta_eccentricity": 0.01193626,
        "meta_inclination": 98.7041,
        "meta_ra_of_asc_node": 324.8972,
        "meta_arg_of_pericenter": 45.2635,
        "meta_mean_anomaly": 315.8179,
        "meta_ephemeris_type": 0,
        "meta_classification_type": "U",
        "meta_norad_cat_id": 36232,
        "meta_element_set_no": 999,
        "meta_rev_at_epoch": 61650,
        "meta_bstar": 0.0005849679,
        "meta_mean_motion_dot": 1.114e-05,
        "meta_mean_motion_ddot": 0,
        "tle_line1": "1 36232U 99025DVH 25340.68062748  .00001114  00000+0  58497-3 0  9998",
        "tle_line2": "2 36232  98.7041 324.8972 0119362  45.2635 315.8179 14.12489244616500"
      },
      "geometry": {
        "type": "Point",
        "coordinates": [
          147.89781903537732,
          0.9461671164208539
        ]
      }
    },
    {
      "type": "Feature",
      "properties": {
        "norad_id": 36234,
        "name": "FENGYUN 1C DEB",
        "group": "fengyun-1c-debris",
        "lat": -41.347726269722386,
        "lon": 61.76618098743276,
        "alt_km": 1038.3876700835563,
        "timestamp": "2025-12-09T14:52:26.450068+00:00",
        "meta_object_name": "FENGYUN 1C DEB",
        "meta_object_id": "1999-025DVK",
        "meta_epoch": "2025-12-08T10:31:28.850304",
        "meta_mean_motion": 13.45655828,
        "meta_eccentricity": 0.03174488,
        "meta_inclination": 99.0031,
        "meta_ra_of_asc_node": 52.6849,
        "meta_arg_of_pericenter": 39.1104,
        "meta_mean_anomaly": 323.2521,
        "meta_ephemeris_type": 0,
        "meta_classification_type": "U",
        "meta_norad_cat_id": 36234,
        "meta_element_set_no": 999,
        "meta_rev_at_epoch": 87889,
        "meta_bstar": 0.00050484626,
        "meta_mean_motion_dot": 3.7e-06,
        "meta_mean_motion_ddot": 0,
        "tle_line1": "1 36234U 99025DVK 25342.43852836  .00000370  00000+0  50485-3 0  9992",
        "tle_line2": "2 36234  99.0031  52.6849 0317448  39.1104 323.2521 13.45655828878896"
      },
      "geometry": {
        "type": "Point",
        "coordinates": [
          61.76618098743276,
          -41.347726269722386
        ]
      }
    },
    {
      "type": "Feature",
      "properties": {
        "norad_id": 36236,
        "name": "FENGYUN 1C DEB",
        "group": "fengyun-1c-debris",
        "lat": 40.51161633076322,
        "lon": 16.557684983576756,
        "alt_km": 862.6324455150716,
        "timestamp": "2025-12-09T14:52:26.450079+00:00",
        "meta_object_name": "FENGYUN 1C DEB",
        "meta_object_id": "1999-025DVM",
        "meta_epoch": "2025-12-05T08:09:49.046400",
        "meta_mean_motion": 13.81948459,
        "meta_eccentricity": 0.01498133,
        "meta_inclination": 98.8508,
        "meta_ra_of_asc_node": 20.19,
        "meta_arg_of_pericenter": 18.1791,
        "meta_mean_anomaly": 342.4641,
        "meta_ephemeris_type": 0,
        "meta_classification_type": "U",
        "meta_norad_cat_id": 36236,
        "meta_element_set_no": 999,
        "meta_rev_at_epoch": 59645,
        "meta_bstar": 0.0004784267,
        "meta_mean_motion_dot": 5.19e-06,
        "meta_mean_motion_ddot": 0,
        "tle_line1": "1 36236U 99025DVM 25339.34015100  .00000519  00000+0  47843-3 0  9994",
        "tle_line2": "2 36236  98.8508  20.1900 0149813  18.1791 342.4641 13.81948459596450"
      },
      "geometry": {
        "type": "Point",
        "coordinates": [
          16.557684983576756,
          40.51161633076322
        ]
      }
    },
    {
      "type": "Feature",
      "properties": {
        "norad_id": 36238,
        "name": "FENGYUN 1C DEB",
        "group": "fengyun-1c-debris",
        "lat": -18.299329162342634,
        "lon": 133.31260745656198,
        "alt_km": 856.8629246570845,
        "timestamp": "2025-12-09T14:52:26.450089+00:00",
        "meta_object_name": "FENGYUN 1C DEB",
        "meta_object_id": "1999-025DVP",
        "meta_epoch": "2025-12-08T15:49:58.240704",
        "meta_mean_motion": 14.1238865,
        "meta_eccentricity": 0.00201825,
        "meta_inclination": 98.6467,
        "meta_ra_of_asc_node": 315.2708,
        "meta_arg_of_pericenter": 294.0016,
        "meta_mean_anomaly": 65.9044,
        "meta_ephemeris_type": 0,
        "meta_classification_type": "U",
        "meta_norad_cat_id": 36238,
        "meta_element_set_no": 999,
        "meta_rev_at_epoch": 86960,
        "meta_bstar": 0.00014863142,
        "meta_mean_motion_dot": 2.32e-06,
        "meta_mean_motion_ddot": 0,
        "tle_line1": "1 36238U 99025DVP 25342.65970186  .00000232  00000+0  14863-3 0  9996",
        "tle_line2": "2 36238  98.6467 315.2708 0020182 294.0016  65.9044 14.12388650869600"
      },
      "geometry": {
        "type": "Point",
        "coordinates": [
          133.31260745656198,
          -18.299329162342634
        ]
      }
    }
  ]
}